GLOBALSTAR M035 [-]     
1 25851U 99037A   23240.83851097 -.00000002  00000+0  23380-2 0  9991
2 25851  51.9947  83.1196 0014093 358.6993  93.4295 11.04526068 23512
GLOBALSTAR M032 [-]     
1 25852U 99037B   23240.47743737 -.00000141  00000+0 -23910-2 0  9997
2 25852  51.9970 314.5779 0008302 135.9457 224.2006 11.19046295 61043
GLOBALSTAR M051 [-]     
1 25853U 99037C   23240.60579826 -.00000076  00000+0 -11228-3 0  9996
2 25853  51.9772 189.6171 0001503 104.9009 255.1968 11.42190212 57136
GLOBALSTAR M030 [-]     
1 25854U 99037D   23240.80910763 -.00000062  00000+0  26953-3 0  9993
2 25854  51.9896  37.0873 0003590 310.3840  49.6663 11.55089654 73961
GLOBALSTAR M048 [-]     
1 25872U 99041A   23240.91779488 -.00000055  00000+0  41725-3 0  9993
2 25872  51.9361  98.4392 0013631 121.5683 251.5873 11.33839308 50315
GLOBALSTAR M026 [-]     
1 25873U 99041B   23240.62853942 -.00000120  00000+0 -20734-2 0  9990
2 25873  51.9974 208.4947 0001652 263.9602 267.4491 11.06822014 75569
GLOBALSTAR M043 [-]     
1 25874U 99041C   23240.82314990 -.00000090  00000+0 -66144-3 0  9990
2 25874  51.9383 180.0717 0012996 270.8351 114.1171 11.25673599 48730
GLOBALSTAR M028 [-]     
1 25875U 99041D   23240.64646971 -.00000102  00000+0 -67617-5 0  9990
2 25875  51.9649 356.6405 0064146  81.7718 279.0411 12.50539292107780
